OBJECT_NAME,OBJECT_ID,EPOCH,MEAN_MOTION,ECCENTRICITY,INCLINATION,RA_OF_ASC_NODE,ARG_OF_PERICENTER,MEAN_ANOMALY,EPHEMERIS_TYPE,CLASSIFICATION_TYPE,NORAD_CAT_ID,ELEMENT_SET_NO,REV_AT_EPOCH,BSTAR,MEAN_MOTION_DOT,MEAN_MOTION_DDOT
LEMUR-2-ROUNDTRIPPER,2025-009DG,2026-07-13T04:10:20.703936,15.04211677,.00044116,97.7252,276.8201,68.0199,292.1495,0,U,62711,999,8153,.38802888E-3,.5331E-4,0
LEMUR-2-MYNAMEISJEFF,2025-009DH,2026-07-13T04:08:08.922336,15.04203117,.00039101,97.7301,277.2155,101.5856,258.5808,0,U,62712,999,8153,.37504573E-3,.5149E-4,0
LEMUR-2-LEIA-PHILIP,2025-052AN,2026-07-13T11:11:05.113824,14.97390276,.000509,97.6810,85.9716,123.1092,237.0620,0,U,63246,999,7260,.45755E-4,.474E-5,0
LEMUR-2-LIA-MARTIN,2025-052AQ,2026-07-13T03:03:21.983328,14.98021131,.00054022,97.6876,86.1537,95.0747,265.1092,0,U,63248,999,7256,.25087482E-3,.2906E-4,0
LEMUR-2-DELOITTE-1,2025-052BB,2026-07-12T16:57:30.590784,14.97770317,.00024509,97.6883,86.0697,67.7345,292.4137,0,U,63259,999,7251,.1903792E-3,.2176E-4,0
LEMUR-2-EMERSONROSE,2025-052BD,2026-07-13T02:58:10.201152,14.99279904,.0002783,97.6887,87.0891,64.4353,295.7157,0,U,63261,999,7262,.25419905E-3,.3044E-4,0
LEMUR-2-MARACHE-FRAN,2025-052BE,2026-07-12T16:20:37.711392,15.00306023,.00048952,97.6849,87.0169,264.0208,96.0458,0,U,63262,999,7258,.15633726E-3,.19E-4,0
LEMUR-2-THEFALCONER,2025-052BG,2026-07-13T04:54:21.930336,14.97559099,.000036,97.6842,86.1531,346.8001,13.3212,0,U,63264,999,7258,.11161E-3,.1245E-4,0
LEMUR-2-UNTITLED-SC,2025-061A,2026-07-13T11:12:39.148128,15.13639878,.0019052,97.5650,169.6420,168.8736,191.2921,0,U,63351,999,7156,.11522E-3,.2012E-4,0
LEMUR-2-ESPERANZA,2025-061B,2026-07-13T10:37:18.498144,15.13745924,.0018672,97.5656,169.7173,168.1167,192.0509,0,U,63352,999,7156,.90485E-4,.157E-4,0
LEMUR-2-KREMPEL-BRO2,2025-061C,2026-07-13T11:05:20.279328,15.14172541,.0019809,97.5702,170.3035,161.0520,199.1453,0,U,63353,999,7158,.11159E-3,.1977E-4,0
LEMUR-2-THERMORAPTOR,2025-061D,2026-07-13T10:37:28.619040,15.14254963,.0019562,97.5708,170.3650,159.9736,200.2267,0,U,63354,999,7158,.99276E-4,.1755E-4,0
LEMUR-2-NEUROSPICY,2025-061E,2026-07-13T09:53:46.564800,15.14373436,.0017297,97.5633,169.9407,162.8666,197.3153,0,U,63355,999,7158,.13058E-3,.2336E-4,0
LEMUR-2-TILLINFINITY,2025-061F,2026-07-13T10:30:00.177120,15.14957268,.0018895,97.5622,170.2747,151.6097,208.6168,0,U,63356,999,7161,.1066E-3,.1928E-4,0
LEMUR-2-KREMPEL-BRO1,2025-061G,2026-07-13T11:31:45.524064,15.14764751,.0019493,97.5622,170.2260,152.8345,207.3911,0,U,63357,999,7161,.12643E-3,.2287E-4,0
LEMUR-2-LANGER2SPACE,2025-061H,2026-07-13T10:42:22.618368,15.14458351,.0017258,97.5627,169.9953,161.0952,199.0924,0,U,63358,999,7159,.98598E-4,.1752E-4,0
LEMUR-2-BALTO,2025-052BH,2026-07-13T11:10:40.367136,15.00354923,.0005164,97.6933,87.7786,335.1418,24.9556,0,U,63395,999,7270,.23085E-3,.2838E-4,0
LEMUR-2-KRISH,2025-135AK,2026-07-12T19:40:53.081184,14.96440074,.000155,97.7772,308.5248,96.3238,263.8160,0,U,64561,999,5775,.22845294E-3,.2533E-4,0
LEMUR-2-HUBBLE-4,2025-135AP,2026-07-13T06:22:16.300416,14.93682329,.0002518,97.7717,307.8688,167.2748,192.8536,0,U,64565,999,5776,.10981E-3,.1104E-4,0
LEMUR-2-SEJONG-2,2025-135BL,2026-07-13T12:14:48.762240,14.96903896,.0003851,97.7705,309.3567,226.9088,133.1811,0,U,64586,999,5788,.18819E-3,.2102E-4,0
LEMUR-2-HUBBLE-5,2025-135BT,2026-07-13T06:35:58.564032,14.94210500,.0004223,97.7739,308.5451,243.2055,116.8733,0,U,64840,999,5780,.10103E-3,.1025E-4,0
LEMUR-2-KARENDARRELL,2025-135BU,2026-07-13T04:42:02.869920,15.00482255,.0012247,97.7709,310.3687,110.7929,249.4607,0,U,64841,999,5791,.35154E-3,.4373E-4,0
LEMUR-2-LUCILLE-ROSE,2025-135BV,2026-07-12T20:03:38.899296,15.00473532,.00146515,97.7710,310.0446,196.2246,163.8510,0,U,65403,999,5248,.33730773E-3,.4195E-4,0
LEMUR-2-AFFIE-WAUWIE,2025-248C,2026-07-13T09:47:59.058816,15.28200773,.0008714,45.3884,332.8093,240.1920,119.8103,0,U,66295,999,3860,.46625E-3,.12783E-3,0
OTTER SDM,2025-276N,2026-07-13T04:31:08.425344,15.20042584,.0004241,97.4209,267.2358,263.4653,96.6100,0,U,66678,999,3436,.16462E-3,.3482E-4,0
LEMUR-2-STAS-GORBUK,2025-276W,2026-07-12T17:57:30.731904,15.19644338,.00034564,97.4243,266.8551,260.6907,99.3937,0,U,66686,999,3429,.18039849E-3,.3778E-4,0
LEMUR-2-TEODOR,2025-276DG,2026-07-12T18:28:26.063040,15.21322077,.00022806,97.4147,267.1448,89.7179,270.4318,0,U,66768,999,3433,.16438721E-3,.361E-4,0
LEMUR-2-LAILA,2025-276DQ,2026-07-13T03:13:40.341216,15.21550887,.00029115,97.4170,267.6416,97.3279,262.8287,0,U,66776,999,3439,.16683159E-3,.369E-4,0
LEMUR-2-CELIJO-SB-PK,2025-276DW,2026-07-12T23:36:49.779072,15.00273190,.0007063,97.5201,263.9101,69.7393,290.4590,0,U,66781,999,2649,.28425417E-3,.3504E-4,0
LEMUR-2-FINNIAN,2025-276DX,2026-07-12T18:06:41.046336,15.00601115,.00078857,97.5339,263.9508,9.8225,350.3152,0,U,66782,999,2383,.14176978E-3,.1734E-4,0
