LEMUR-2-ROUNDTRIPPER    
1 62711U 25009DG  26194.17385074  .00005331  00000+0  38803-3 0  9996
2 62711  97.7252 276.8201 0004411  68.0199 292.1495 15.04211677 81533
LEMUR-2-MYNAMEISJEFF    
1 62712U 25009DH  26194.17232549  .00005149  00000+0  37505-3 0  9990
2 62712  97.7301 277.2155 0003910 101.5856 258.5808 15.04203117 81532
LEMUR-2-LEIA-PHILIP     
1 63246U 25052AN  26194.46603141  .00000474  00000+0  45755-4 0  9996
2 63246  97.6810  85.9716 0005090 123.1092 237.0620 14.97390276 72605
LEMUR-2-LIA-MARTIN      
1 63248U 25052AQ  26194.12733777  .00002906  00000+0  25087-3 0  9997
2 63248  97.6876  86.1537 0005402  95.0747 265.1092 14.98021131 72566
LEMUR-2-DELOITTE-1      
1 63259U 25052BB  26193.70660406  .00002176  00000+0  19038-3 0  9998
2 63259  97.6883  86.0697 0002450  67.7345 292.4137 14.97770317 72516
LEMUR-2-EMERSONROSE     
1 63261U 25052BD  26194.12372918  .00003044  00000+0  25420-3 0  9993
2 63261  97.6887  87.0891 0002783  64.4353 295.7157 14.99279904 72620
LEMUR-2-MARACHE-FRAN    
1 63262U 25052BE  26193.68099203  .00001900  00000+0  15634-3 0  9992
2 63262  97.6849  87.0169 0004895 264.0208  96.0458 15.00306023 72587
LEMUR-2-THEFALCONER     
1 63264U 25052BG  26194.20442049  .00001245  00000+0  11161-3 0  9996
2 63264  97.6842  86.1531 0000360 346.8001  13.3212 14.97559099 72586
LEMUR-2-UNTITLED-SC     
1 63351U 25061A   26194.46711977  .00002012  00000+0  11522-3 0  9994
2 63351  97.5650 169.6420 0019052 168.8736 191.2921 15.13639878 71561
LEMUR-2-ESPERANZA       
1 63352U 25061B   26194.44257521  .00001570  00000+0  90485-4 0  9997
2 63352  97.5656 169.7173 0018672 168.1167 192.0509 15.13745924 71563
LEMUR-2-KREMPEL-BRO2    
1 63353U 25061C   26194.46204027  .00001977  00000+0  11159-3 0  9994
2 63353  97.5702 170.3035 0019809 161.0520 199.1453 15.14172541 71587
LEMUR-2-THERMORAPTOR    
1 63354U 25061D   26194.44269235  .00001755  00000+0  99276-4 0  9996
2 63354  97.5708 170.3650 0019562 159.9736 200.2267 15.14254963 71584
LEMUR-2-NEUROSPICY      
1 63355U 25061E   26194.41234450  .00002336  00000+0  13058-3 0  9994
2 63355  97.5633 169.9407 0017297 162.8666 197.3153 15.14373436 71581
LEMUR-2-TILLINFINITY    
1 63356U 25061F   26194.43750205  .00001928  00000+0  10660-3 0  9990
2 63356  97.5622 170.2747 0018895 151.6097 208.6168 15.14957268 71618
LEMUR-2-KREMPEL-BRO1    
1 63357U 25061G   26194.48038801  .00002287  00000+0  12643-3 0  9999
2 63357  97.5622 170.2260 0019493 152.8345 207.3911 15.14764751 71618
LEMUR-2-LANGER2SPACE    
1 63358U 25061H   26194.44609512  .00001752  00000+0  98598-4 0  9999
2 63358  97.5627 169.9953 0017258 161.0952 199.0924 15.14458351 71595
LEMUR-2-BALTO           
1 63395U 25052BH  26194.46574499  .00002838  00000+0  23085-3 0  9991
2 63395  97.6933  87.7786 0005164 335.1418  24.9556 15.00354923 72708
LEMUR-2-KRISH           
1 64561U 25135AK  26193.82005881  .00002533  00000+0  22845-3 0  9997
2 64561  97.7772 308.5248 0001550  96.3238 263.8160 14.96440074 57754
LEMUR-2-HUBBLE-4        
1 64565U 25135AP  26194.26546644  .00001104  00000+0  10981-3 0  9998
2 64565  97.7717 307.8688 0002518 167.2748 192.8536 14.93682329 57763
LEMUR-2-SEJONG-2        
1 64586U 25135BL  26194.51028660  .00002102  00000+0  18819-3 0  9999
2 64586  97.7705 309.3567 0003851 226.9088 133.1811 14.96903896 57882
LEMUR-2-HUBBLE-5        
1 64840U 25135BT  26194.27498338  .00001025  00000+0  10103-3 0  9999
2 64840  97.7739 308.5451 0004223 243.2055 116.8733 14.94210500 57809
LEMUR-2-KARENDARRELL    
1 64841U 25135BU  26194.19586655  .00004373  00000+0  35154-3 0  9993
2 64841  97.7709 310.3687 0012247 110.7929 249.4607 15.00482255 57913
LEMUR-2-LUCILLE-ROSE    
1 65403U 25135BV  26193.83586689  .00004195  00000+0  33731-3 0  9996
2 65403  97.7710 310.0446 0014651 196.2246 163.8510 15.00473532 52489
LEMUR-2-AFFIE-WAUWIE    
1 66295U 25248C   26194.40832244  .00012783  00000+0  46625-3 0  9994
2 66295  45.3884 332.8093 0008714 240.1920 119.8103 15.28200773 38603
OTTER SDM               
1 66678U 25276N   26194.18829196  .00003482  00000+0  16462-3 0  9999
2 66678  97.4209 267.2358 0004241 263.4653  96.6100 15.20042584 34368
LEMUR-2-STAS-GORBUK     
1 66686U 25276W   26193.74827236  .00003778  00000+0  18040-3 0  9994
2 66686  97.4243 266.8551 0003456 260.6907  99.3937 15.19644338 34296
LEMUR-2-TEODOR          
1 66768U 25276DG  26193.76974610  .00003610  00000+0  16439-3 0  9991
2 66768  97.4147 267.1448 0002280  89.7179 270.4318 15.21322077 34330
LEMUR-2-LAILA           
1 66776U 25276DQ  26194.13449469  .00003690  00000+0  16683-3 0  9990
2 66776  97.4170 267.6416 0002911  97.3279 262.8287 15.21550887 34390
LEMUR-2-CELIJO-SB-PK    
1 66781U 25276DW  26193.98390948  .00003504  00000+0  28425-3 0  9996
2 66781  97.5201 263.9101 0007063  69.7393 290.4590 15.00273190 26497
LEMUR-2-FINNIAN         
1 66782U 25276DX  26193.75464174  .00001734  00000+0  14177-3 0  9997
2 66782  97.5339 263.9508 0007885   9.8225 350.3152 15.00601115 23839
